[{"OBJECT_NAME":"STARLINK-1695","OBJECT_ID":"2020-062E","EPOCH":"2026-03-10T00:00:02.999808","MEAN_MOTION":15.54321965,"ECCENTRICITY":0.00056929,"INCLINATION":53.0499,"RA_OF_ASC_NODE":335.097,"ARG_OF_PERICENTER":127.3586,"MEAN_ANOMALY":314.4015,"EPHEMERIS_TYPE":0,"CLASSIFICATION_TYPE":"U","NORAD_CAT_ID":46329,"ELEMENT_SET_NO":999,"REV_AT_EPOCH":591,"BSTAR":0.0015936543,"MEAN_MOTION_DOT":0.00107125,"MEAN_MOTION_DDOT":0},{"OBJECT_NAME":"STARLINK-32335","OBJECT_ID":"2024-195S","EPOCH":"2026-03-09T22:00:01.999584","MEAN_MOTION":15.5379623,"ECCENTRICITY":0.00142813,"INCLINATION":53.1479,"RA_OF_ASC_NODE":149.8644,"ARG_OF_PERICENTER":3.406,"MEAN_ANOMALY":158.0753,"EPHEMERIS_TYPE":0,"CLASSIFICATION_TYPE":"U","NORAD_CAT_ID":61703,"ELEMENT_SET_NO":999,"REV_AT_EPOCH":583,"BSTAR":0.0040457397,"MEAN_MOTION_DOT":0.00274037,"MEAN_MOTION_DDOT":0}]
